PANDORA
1 67395U 80229J   26050.94408565  .00000000  00000-0  37770-3 0    05
2 67395  97.8014  51.4563 0006272 142.3007 143.2026 14.87828950    09
